CSS (TIANHE)            
1 48274U 21035A   23234.74156000  .00031470  00000+0  36499-3 0  9991
2 48274  41.4730 111.3128 0009903 215.5337 144.4843 15.61057149132238
